[{"OBJECT_NAME":"STARLINK-32453","OBJECT_ID":"2024-193L","EPOCH":"2026-03-09T11:10:09.107616","MEAN_MOTION":15.30174734,"ECCENTRICITY":0.00012199,"INCLINATION":53.1602,"RA_OF_ASC_NODE":91.9507,"ARG_OF_PERICENTER":89.0417,"MEAN_ANOMALY":271.0724,"EPHEMERIS_TYPE":0,"CLASSIFICATION_TYPE":"U","NORAD_CAT_ID":61671,"ELEMENT_SET_NO":999,"REV_AT_EPOCH":7649,"BSTAR":-3.7467349e-5,"MEAN_MOTION_DOT":-1.468e-5,"MEAN_MOTION_DDOT":0},{"OBJECT_NAME":"CZ-6A DEB","OBJECT_ID":"2024-140XT","EPOCH":"2026-03-09T03:39:44.093088","MEAN_MOTION":15.17507252,"ECCENTRICITY":0.01850271,"INCLINATION":89.7161,"RA_OF_ASC_NODE":331.3348,"ARG_OF_PERICENTER":37.6736,"MEAN_ANOMALY":323.7298,"EPHEMERIS_TYPE":0,"CLASSIFICATION_TYPE":"U","NORAD_CAT_ID":61402,"ELEMENT_SET_NO":999,"REV_AT_EPOCH":8199,"BSTAR":0.0011238517,"MEAN_MOTION_DOT":0.00035461,"MEAN_MOTION_DDOT":0}]
